CCSDS_OMM_VERS = 2.0
CREATION_DATE  = 
ORIGINATOR     = 

OBJECT_NAME    = MERIDIAN-M 21L
OBJECT_ID      = 2026-071A
CENTER_NAME    = EARTH
REF_FRAME      = TEME
TIME_SYSTEM    = UTC
MEAN_ELEMENT_THEORY = SGP/SGP4

EPOCH          = 2026-04-03T07:41:47.992704
MEAN_MOTION    = 1.98618778
ECCENTRICITY   = .7241466
INCLINATION    = 62.7917
RA_OF_ASC_NODE = 238.8364
ARG_OF_PERICENTER = 284.9481
MEAN_ANOMALY   = 10.7459

EPHEMERIS_TYPE = 0
CLASSIFICATION_TYPE = U
NORAD_CAT_ID   = 68571
ELEMENT_SET_NO = 999
REV_AT_EPOCH   = 1
BSTAR          = .16587E-2
MEAN_MOTION_DOT = -.1265E-4
MEAN_MOTION_DDOT = 0

CCSDS_OMM_VERS = 2.0
CREATION_DATE  = 
ORIGINATOR     = 

OBJECT_NAME    = FREGAT R/B
OBJECT_ID      = 2026-071B
CENTER_NAME    = EARTH
REF_FRAME      = TEME
TIME_SYSTEM    = UTC
MEAN_ELEMENT_THEORY = SGP/SGP4

EPOCH          = 2026-04-03T07:42:42.175872
MEAN_MOTION    = 2.01041412
ECCENTRICITY   = .73138199
INCLINATION    = 63.0589
RA_OF_ASC_NODE = 237.9448
ARG_OF_PERICENTER = 284.9724
MEAN_ANOMALY   = 10.3188

EPHEMERIS_TYPE = 0
CLASSIFICATION_TYPE = U
NORAD_CAT_ID   = 68572
ELEMENT_SET_NO = 999
REV_AT_EPOCH   = 1
BSTAR          = .35051942E-3
MEAN_MOTION_DOT = -.1541E-4
MEAN_MOTION_DDOT = 0

